{"type": "FeatureCollection", "features": [ {"type": "Feature", "properties": {"norad_id": 60453, "name": "LEGION 4", "group": "resource", "lat": -44.283922495368316, "lon": -40.90748616124666, "alt_km": 516.5113928614655, "timestamp": "2025-12-08T23:34:03.627529+00:00", "meta": {"OBJECT_NAME": "LEGION 4", "OBJECT_ID": "2024-146B", "EPOCH": "2025-12-08T14:30:46.806624", "MEAN_MOTION": 15.15758817, "ECCENTRICITY": 0.00098264, "INCLINATION": 45.0387, "RA_OF_ASC_NODE": 64.0378, "ARG_OF_PERICENTER": 289.5049, "MEAN_ANOMALY": 70.4769, "EPHEMERIS_TYPE": 0, "CLASSIFICATION_TYPE": "U", "NORAD_CAT_ID": 60453, "ELEMENT_SET_NO": 999, "REV_AT_EPOCH": 7195, "BSTAR": 0.00040912458, "MEAN_MOTION_DOT": 7.689e-05, "MEAN_MOTION_DDOT": 0}, "tle": {"line1": "1 60453U 24146B   25342.60470841  .00007689  00000+0  40912-3 0  9999", "line2": "2 60453  45.0387  64.0378 0009826 289.5049  70.4769 15.15758817 71950"}}, "geometry": {"type": "Point", "coordinates": [-40.90748616124666, -44.283922495368316]}}, {"type": "Feature", "properties": {"norad_id": 60989, "name": "SENTINEL-2C", "group": "resource", "lat": 77.83914921481049, "lon": -80.08146632385248, "alt_km": 780.8719836505088, "timestamp": "2025-12-08T23:34:03.627540+00:00", "meta": {"OBJECT_NAME": "SENTINEL-2C", "OBJECT_ID": "2024-157A", "EPOCH": "2025-12-08T14:43:00.500736", "MEAN_MOTION": 14.30815431, "ECCENTRICITY": 0.00011482, "INCLINATION": 98.5686, "RA_OF_ASC_NODE": 55.1551, "ARG_OF_PERICENTER": 97.1414, "MEAN_ANOMALY": 262.99, "EPHEMERIS_TYPE": 0, "CLASSIFICATION_TYPE": "U", "NORAD_CAT_ID": 60989, "ELEMENT_SET_NO": 999, "REV_AT_EPOCH": 6573, "BSTAR": 0.00015645136, "MEAN_MOTION_DOT": 3.66e-06, "MEAN_MOTION_DDOT": 0}, "tle": {"line1": "1 60989U 24157A   25342.61320024  .00000366  00000+0  15645-3 0  9993", "line2": "2 60989  98.5686  55.1551 0001148  97.1414 262.9900 14.30815431 65737"}}, "geometry": {"type": "Point", "coordinates": [-80.08146632385248, 77.83914921481049]}}, {"type": "Feature", "properties": {"norad_id": 61735, "name": "IONOSFERA-M 1", "group": "resource", "lat": 64.0874562423173, "lon": 51.32106581618344, "alt_km": 809.8804664877389, "timestamp": "2025-12-08T23:34:03.627550+00:00", "meta": {"OBJECT_NAME": "IONOSFERA-M 1", "OBJECT_ID": "2024-199A", "EPOCH": "2025-12-08T14:35:32.602272", "MEAN_MOTION": 14.22712795, "ECCENTRICITY": 0.0001154, "INCLINATION": 98.7413, "RA_OF_ASC_NODE": 212.4878, "ARG_OF_PERICENTER": 27.4247, "MEAN_ANOMALY": 332.6991, "EPHEMERIS_TYPE": 0, "CLASSIFICATION_TYPE": "U", "NORAD_CAT_ID": 61735, "ELEMENT_SET_NO": 999, "REV_AT_EPOCH": 10060, "BSTAR": 9.2723661e-05, "MEAN_MOTION_DOT": 1.63e-06, "MEAN_MOTION_DDOT": 0}, "tle": {"line1": "1 61735U 24199A   25342.60801623  .00000163  00000+0  92724-4 0  9996", "line2": "2 61735  98.7413 212.4878 0001154  27.4247 332.6991 14.22712795100605"}}, "geometry": {"type": "Point", "coordinates": [51.32106581618344, 64.0874562423173]}}, {"type": "Feature", "properties": {"norad_id": 61736, "name": "IONOSFERA-M 2", "group": "resource", "lat": -61.714960822748374, "lon": -130.61476461826842, "alt_km": 824.4347217436825, "timestamp": "2025-12-08T23:34:03.627560+00:00", "meta": {"OBJECT_NAME": "IONOSFERA-M 2", "OBJECT_ID": "2024-199B", "EPOCH": "2025-12-08T15:25:26.525568", "MEAN_MOTION": 14.2271494, "ECCENTRICITY": 0.00015469, "INCLINATION": 98.7412, "RA_OF_ASC_NODE": 212.4348, "ARG_OF_PERICENTER": 115.446, "MEAN_ANOMALY": 244.6878, "EPHEMERIS_TYPE": 0, "CLASSIFICATION_TYPE": "U", "NORAD_CAT_ID": 61736, "ELEMENT_SET_NO": 999, "REV_AT_EPOCH": 10373, "BSTAR": 9.3846858e-05, "MEAN_MOTION_DOT": 1.66e-06, "MEAN_MOTION_DDOT": 0}, "tle": {"line1": "1 61736U 24199B   25342.64266812  .00000166  00000+0  93847-4 0  9996", "line2": "2 61736  98.7412 212.4348 0001546 115.4460 244.6878 14.22714940103734"}}, "geometry": {"type": "Point", "coordinates": [-130.61476461826842, -61.714960822748374]}}, {"type": "Feature", "properties": {"norad_id": 63772, "name": "BIOMASS", "group": "resource", "lat": -62.95230971127043, "lon": -28.08677446669359, "alt_km": 677.0227435258776, "timestamp": "2025-12-08T23:34:03.627571+00:00", "meta": {"OBJECT_NAME": "BIOMASS", "OBJECT_ID": "2025-090A", "EPOCH": "2025-12-08T12:38:26.734848", "MEAN_MOTION": 14.67533647, "ECCENTRICITY": 0.00012973, "INCLINATION": 98.0696, "RA_OF_ASC_NODE": 167.598, "ARG_OF_PERICENTER": 79.3672, "MEAN_ANOMALY": 280.7678, "EPHEMERIS_TYPE": 0, "CLASSIFICATION_TYPE": "U", "NORAD_CAT_ID": 63772, "ELEMENT_SET_NO": 999, "REV_AT_EPOCH": 3272, "BSTAR": 0.00049588123, "MEAN_MOTION_DOT": 2.765e-05, "MEAN_MOTION_DDOT": 0}, "tle": {"line1": "1 63772U 25090A   25342.52669832  .00002765  00000+0  49588-3 0  9994", "line2": "2 63772  98.0696 167.5980 0001297  79.3672 280.7678 14.67533647 32722"}}, "geometry": {"type": "Point", "coordinates": [-28.08677446669359, -62.95230971127043]}}, {"type": "Feature", "properties": {"norad_id": 64694, "name": "GOSAT-GW (IBUKI GW)", "group": "resource", "lat": 81.33396441425371, "lon": 166.6345791955957, "alt_km": 660.3725307475561, "timestamp": "2025-12-08T23:34:03.627580+00:00", "meta": {"OBJECT_NAME": "GOSAT-GW (IBUKI GW)", "OBJECT_ID": "2025-141A", "EPOCH": "2025-12-08T13:19:35.533632", "MEAN_MOTION": 14.67564592, "ECCENTRICITY": 0.00014943, "INCLINATION": 98.0423, "RA_OF_ASC_NODE": 278.1441, "ARG_OF_PERICENTER": 82.553, "MEAN_ANOMALY": 277.5845, "EPHEMERIS_TYPE": 0, "CLASSIFICATION_TYPE": "U", "NORAD_CAT_ID": 64694, "ELEMENT_SET_NO": 999, "REV_AT_EPOCH": 2388, "BSTAR": 0.00038288086, "MEAN_MOTION_DOT": 2.125e-05, "MEAN_MOTION_DDOT": 0}, "tle": {"line1": "1 64694U 25141A   25342.55527238  .00002125  00000+0  38288-3 0  9996", "line2": "2 64694  98.0423 278.1441 0001494  82.5530 277.5845 14.67564592 23883"}}, "geometry": {"type": "Point", "coordinates": [166.6345791955957, 81.33396441425371]}}, {"type": "Feature", "properties": {"norad_id": 64876, "name": "IONOSFERA-M 3", "group": "resource", "lat": -1.5237845486385804, "lon": -54.8154136852124, "alt_km": 822.9447063338102, "timestamp": "2025-12-08T23:34:03.627591+00:00", "meta": {"OBJECT_NAME": "IONOSFERA-M 3", "OBJECT_ID": "2025-155A", "EPOCH": "2025-12-08T13:26:18.918816", "MEAN_MOTION": 14.2143951, "ECCENTRICITY": 0.00023277, "INCLINATION": 98.5779, "RA_OF_ASC_NODE": 304.5445, "ARG_OF_PERICENTER": 66.5891, "MEAN_ANOMALY": 293.5531, "EPHEMERIS_TYPE": 0, "CLASSIFICATION_TYPE": "U", "NORAD_CAT_ID": 64876, "ELEMENT_SET_NO": 999, "REV_AT_EPOCH": 1932, "BSTAR": 0.0001032337, "MEAN_MOTION_DOT": 1.83e-06, "MEAN_MOTION_DDOT": 0}, "tle": {"line1": "1 64876U 25155A   25342.55994119  .00000183  00000+0  10323-3 0  9991", "line2": "2 64876  98.5779 304.5445 0002327  66.5891 293.5531 14.21439510 19325"}}, "geometry": {"type": "Point", "coordinates": [-54.8154136852124, -1.5237845486385804]}}, {"type": "Feature", "properties": {"norad_id": 64877, "name": "IONOSFERA-M 4", "group": "resource", "lat": 0.6151757653457701, "lon": 124.96691044284042, "alt_km": 823.795470711294, "timestamp": "2025-12-08T23:34:03.627601+00:00", "meta": {"OBJECT_NAME": "IONOSFERA-M 4", "OBJECT_ID": "2025-155B", "EPOCH": "2025-12-08T14:16:48.899424", "MEAN_MOTION": 14.21440598, "ECCENTRICITY": 0.00016855, "INCLINATION": 98.5777, "RA_OF_ASC_NODE": 304.4981, "ARG_OF_PERICENTER": 67.5192, "MEAN_ANOMALY": 292.6164, "EPHEMERIS_TYPE": 0, "CLASSIFICATION_TYPE": "U", "NORAD_CAT_ID": 64877, "ELEMENT_SET_NO": 999, "REV_AT_EPOCH": 1932, "BSTAR": 0.00010044764, "MEAN_MOTION_DOT": 1.77e-06, "MEAN_MOTION_DDOT": 0}, "tle": {"line1": "1 64877U 25155B   25342.59501041  .00000177  00000+0  10045-3 0  9998", "line2": "2 64877  98.5777 304.4981 0001685  67.5192 292.6164 14.21440598 19329"}}, "geometry": {"type": "Point", "coordinates": [124.96691044284042, 0.6151757653457701]}}, {"type": "Feature", "properties": {"norad_id": 64899, "name": "MICROCARB", "group": "resource", "lat": 9.939483736932793, "lon": 56.97487810036256, "alt_km": 666.0021341139218, "timestamp": "2025-12-08T23:34:03.627612+00:00", "meta": {"OBJECT_NAME": "MICROCARB", "OBJECT_ID": "2025-156A", "EPOCH": "2025-12-08T15:21:54.823104", "MEAN_MOTION": 14.72047752, "ECCENTRICITY": 0.00168719, "INCLINATION": 98.0029, "RA_OF_ASC_NODE": 58.0513, "ARG_OF_PERICENTER": 157.3471, "MEAN_ANOMALY": 202.8485, "EPHEMERIS_TYPE": 0, "CLASSIFICATION_TYPE": "U", "NORAD_CAT_ID": 64899, "ELEMENT_SET_NO": 999, "REV_AT_EPOCH": 1993, "BSTAR": 0.00024316884, "MEAN_MOTION_DOT": 1.481e-05, "MEAN_MOTION_DDOT": 0}, "tle": {"line1": "1 64899U 25156A   25342.64021786  .00001481  00000+0  24317-3 0  9998", "line2": "2 64899  98.0029  58.0513 0016871 157.3471 202.8485 14.72047752 19939"}}, "geometry": {"type": "Point", "coordinates": [56.97487810036256, 9.939483736932793]}}, {"type": "Feature", "properties": {"norad_id": 64900, "name": "CO3D 3", "group": "resource", "lat": 57.61227890895786, "lon": -108.71741554860908, "alt_km": 498.8034009292887, "timestamp": "2025-12-08T23:34:03.627622+00:00", "meta": {"OBJECT_NAME": "CO3D 3", "OBJECT_ID": "2025-156B", "EPOCH": "2025-12-08T13:33:23.081472", "MEAN_MOTION": 15.20197087, "ECCENTRICITY": 0.00013601, "INCLINATION": 97.4342, "RA_OF_ASC_NODE": 58.9921, "ARG_OF_PERICENTER": 109.9602, "MEAN_ANOMALY": 250.178, "EPHEMERIS_TYPE": 0, "CLASSIFICATION_TYPE": "U", "NORAD_CAT_ID": 64900, "ELEMENT_SET_NO": 999, "REV_AT_EPOCH": 2057, "BSTAR": 0.00044229272, "MEAN_MOTION_DOT": 9.518e-05, "MEAN_MOTION_DDOT": 0}, "tle": {"line1": "1 64900U 25156B   25342.56485048  .00009518  00000+0  44229-3 0  9990", "line2": "2 64900  97.4342  58.9921 0001360 109.9602 250.1780 15.20197087 20578"}}, "geometry": {"type": "Point", "coordinates": [-108.71741554860908, 57.61227890895786]}}]}